GPS BIII-1  (PRN 04)    
1 43873U 18109A   26184.73524920 -.00000005  00000+0  00000+0 0  9991
2 43873  55.6910  91.5344 0038559 197.4684 354.7406  2.00562540 55405
COSMOS 2527 (756)       
1 43508U 18053A   26186.38592319 -.00000011  00000+0  00000+0 0  9991
2 43508  65.5873  73.3006 0006721 233.2746 126.7299  2.13102373 62666
COSMOS 2529 (757)       
1 43687U 18086A   26186.48222325  .00000104  00000+0  00000+0 0  9995
2 43687  64.2964 191.9765 0012124 256.2926 103.5996  2.13102138 59672
GSAT0216 (GALILEO 20)   
1 43056U 17079B   26185.31754973  .00000074  00000+0  00000+0 0  9992
2 43056  55.0701 221.0351 0004785 276.4943  83.5267  1.70474618 53299
GSAT0217 (GALILEO 21)   
1 43057U 17079C   26186.12492863  .00000075  00000+0  00000+0 0  9991
2 43057  55.0683 221.0105 0003472 295.4550  64.5817  1.70474294 53293
GSAT0218 (GALILEO 22)   
1 43058U 17079D   26186.34500281  .00000075  00000+0  00000+0 0  9990
2 43058  55.0681 221.0021 0006103 274.7664  85.2358  1.70474403 53325
GSAT0221 (GALILEO 25)   
1 43564U 18060A   26184.48931205 -.00000075  00000+0  00000+0 0  9991
2 43564  57.1640 341.3408 0002544 292.9335  67.0341  1.70476235 49445
GSAT0222 (GALILEO 26)   
1 43565U 18060B   26185.88216625 -.00000072  00000+0  00000+0 0  9996
2 43565  57.1670 341.3069 0002471 237.6197 122.3538  1.70475916 49519
GSAT0219 (GALILEO 23)   
1 43566U 18060C   26183.17010913 -.00000079  00000+0  00000+0 0  9996
2 43566  57.1675 341.3816 0001774 308.8571  51.1194  1.70476198 49449
GSAT0220 (GALILEO 24)   
1 43567U 18060D   26186.32402861 -.00000071  00000+0  00000+0 0  9996
2 43567  57.1658 341.2975 0002017 296.4839  63.4936  1.70476003 49485
BEIDOU-3 M7 (C27)       
1 43107U 18003A   26186.60720015 -.00000060  00000+0  00000+0 0  9996
2 43107  54.3105 301.6730 0004482  97.3443 262.7312  1.86228485 57697
BEIDOU-3 M8 (C28)       
1 43108U 18003B   26185.47778757 -.00000059  00000+0  00000+0 0  9995
2 43108  54.3040 301.6942 0002959 257.8865 102.1041  1.86231096 57686
BEIDOU-3 M4 (C22)       
1 43207U 18018A   26186.99481105 -.00000039  00000+0  00000+0 0  9995
2 43207  56.6666  62.5294 0007452  26.6480 333.4562  1.86231470 57094
BEIDOU-3 M3 (C21)       
1 43208U 18018B   26185.98738978 -.00000037  00000+0  00000+0 0  9995
2 43208  56.6656  62.5664 0007917 344.1639  15.8794  1.86231281 57071
BEIDOU-3 M9 (C29)       
1 43245U 18029A   26186.20531919 -.00000058  00000+0  00000+0 0  9993
2 43245  54.1766 299.3193 0001024 178.1170 181.9112  1.86228509 56237
BEIDOU-3 M10 (C30)      
1 43246U 18029B   26186.13958437 -.00000057  00000+0  00000+0 0  9993
2 43246  54.1743 299.3476 0003288  34.7932 325.2560  1.86229590 56213
BEIDOU-2 IGSO-7 (C16)   
1 43539U 18057A   26182.89122331 -.00000033  00000+0  00000+0 0  9998
2 43539  55.1981 162.9292 0104946 237.8611 308.6338  1.00246939 29273
BEIDOU-3 M5 (C23)       
1 43581U 18062A   26186.36353622  .00000102  00000+0  00000+0 0  9992
2 43581  54.0864 181.6860 0005685 290.7318  69.2090  1.86228842 53975
BEIDOU-3 M6 (C24)       
1 43582U 18062B   26186.76405267  .00000106  00000+0  00000+0 0  9994
2 43582  54.0861 181.6619 0005118   9.0782 350.9336  1.86227983 53981
BEIDOU-3 M12 (C26)      
1 43602U 18067A   26186.16551804  .00000100  00000+0  00000+0 0  9999
2 43602  54.1815 180.4305 0007887  30.0033 330.0410  1.86227846 53453
BEIDOU-3 M11 (C25)      
1 43603U 18067B   26186.30063315  .00000102  00000+0  00000+0 0  9993
2 43603  54.1789 180.3895 0004608  13.2303 346.7812  1.86227307 53483
BEIDOU-3 M13 (C32)      
1 43622U 18072A   26186.79235840 -.00000039  00000+0  00000+0 0  9997
2 43622  56.6407  62.0459 0006509 332.1070  27.9245  1.86231591 53002
BEIDOU-3 M14 (C33)      
1 43623U 18072B   26186.12084875 -.00000037  00000+0  00000+0 0  9993
2 43623  56.6413  62.0624 0005524  10.1889 349.8903  1.86231326 52980
BEIDOU-3 M16 (C35)      
1 43647U 18078A   26186.27591436 -.00000058  00000+0  00000+0 0  9990
2 43647  54.0723 299.3519 0006797  40.3103 319.7676  1.86232297 52494
BEIDOU-3 M15 (C34)      
1 43648U 18078B   26186.40518660 -.00000058  00000+0  00000+0 0  9994
2 43648  54.0678 299.3477 0003902  59.0227 301.0433  1.86232465 52511
BEIDOU-3 G1 (C59)       
1 43683U 18085A   26187.25002622 -.00000095  00000+0  00000+0 0  9992
2 43683   2.9139  96.8716 0008546 353.6234  83.6711  1.00273747 28250
BEIDOU-3 M17 (C36)      
1 43706U 18093A   26185.22286402  .00000091  00000+0  00000+0 0  9997
2 43706  54.1701 181.7185 0010151 293.0453 245.7693  1.86228469 51856
BEIDOU-3 M18 (C37)      
1 43707U 18093B   26186.43047008  .00000103  00000+0  00000+0 0  9993
2 43707  54.1708 181.6695 0008087 321.5987  38.3455  1.86226766 51875
BEIDOU-3 IGSO-1 (C38)   
1 44204U 19023A   26183.86157338 -.00000197  00000+0  00000+0 0  9996
2 44204  58.7163  37.4891 0025641 224.0382  88.2901  1.00287534  7361
BEIDOU-2 G8 (C01)       
1 44231U 19027A   26187.31819633 -.00000233  00000+0  00000+0 0  9998
2 44231   1.7036  74.5158 0010028 285.3018 183.5081  1.00275335 26270
IRNSS-1I                
1 43286U 18035A   26185.98696016  .00000082  00000+0  00000+0 0  9995
2 43286  28.7931  73.9207 0017781 182.3699  77.0399  1.00278933 30253
